[{"OBJECT_NAME":"STARLINK-35886","OBJECT_ID":"2025-280T","EPOCH":"2026-03-09T22:09:25.068384","MEAN_MOTION":14.98329417,"ECCENTRICITY":0.00026501,"INCLINATION":70.0028,"RA_OF_ASC_NODE":333.7521,"ARG_OF_PERICENTER":249.5828,"MEAN_ANOMALY":110.5047,"EPHEMERIS_TYPE":0,"CLASSIFICATION_TYPE":"U","NORAD_CAT_ID":66838,"ELEMENT_SET_NO":999,"REV_AT_EPOCH":1611,"BSTAR":0.00028740096,"MEAN_MOTION_DOT":3.338e-5,"MEAN_MOTION_DDOT":0},{"OBJECT_NAME":"ION SCV-021","OBJECT_ID":"2025-276DT","EPOCH":"2026-03-09T17:54:19.585728","MEAN_MOTION":14.97286526,"ECCENTRICITY":0.00131375,"INCLINATION":97.5322,"RA_OF_ASC_NODE":142.8125,"ARG_OF_PERICENTER":96.8695,"MEAN_ANOMALY":263.4023,"EPHEMERIS_TYPE":0,"CLASSIFICATION_TYPE":"U","NORAD_CAT_ID":67483,"ELEMENT_SET_NO":999,"REV_AT_EPOCH":772,"BSTAR":0.00021144867,"MEAN_MOTION_DOT":2.399e-5,"MEAN_MOTION_DDOT":0}]
